STARLINK-34854          
1 65337U 25189Q   26068.65690868  .00030196  00000+0  10272-2 0  9991
2 65337  53.1582 206.7591 0001229  92.5483 267.5658 15.30209757 31041
2025-313BC              
1 67298U 25313BC  26068.18968176  .00075331  00000+0  26410-2 0  9997
2 67298  97.3985 144.8110 0008478 328.9209  31.1528 15.29126358  7890
